KUIPER-00589            
1 69767U 26151E   26200.54154909 -.00010968  00000+0 -28457-3 0  9991
2 69767  51.8758 159.3693 0004589 154.1869 205.9347 15.37369502  2684
KUIPER-00598            
1 69768U 26151F   26200.83335647  .00041407  00000+0  12309-2 0  9992
2 69768  51.8647 158.2110 0008690 179.0068 226.1797 15.34313009  3276
KUIPER-00604            
1 69769U 26151G   26200.40218267  .00010473  00000+0  28300-3 0  9992
2 69769  51.8805 159.9344 0002707 118.4354 241.6906 15.38304923  2663
KUIPER-00609            
1 69770U 26151H   26200.85223463  .00013742  00000+0  36318-3 0  9997
2 69770  51.8806 157.7038 0001479  50.8026 309.3092 15.38709271  2733
KUIPER-00611            
1 69771U 26151J   26200.39981719  .00010516  00000+0  28219-3 0  9999
2 69771  51.8807 159.9157 0001692 118.8141 241.3017 15.38514241  2666
KUIPER-00612            
1 69772U 26151K   26200.53544617  .00011540  00000+0  31369-3 0  9996
2 69772  51.8793 159.3297 0003644 120.1060 240.0289 15.38008452  2686
KUIPER-00614            
1 69773U 26151L   26200.59805767  .00010712  00000+0  29007-3 0  9995
2 69773  51.8808 158.9958 0002715 134.2049 225.9162 15.38213806  2698
KUIPER-00615            
1 69774U 26151M   26200.86848574  .00012145  00000+0  33705-3 0  9991
2 69774  51.8786 157.8077 0006329 164.0865 196.0321 15.37300416  2739
KUIPER-00616            
1 69775U 26151N   26200.85592836  .00015363  00000+0  40879-3 0  9993
2 69775  51.8790 157.7299 0002822 137.0731 223.0477 15.38401162  2730
KUIPER-00617            
1 69776U 26151P   26200.86189644  .00013507  00000+0  36708-3 0  9998
2 69776  51.8799 157.7663 0003678 142.5405 217.5839 15.37858972  2738
KUIPER-00619            
1 69777U 26151Q   26200.52858271  .00014464  00000+0  38296-3 0  9998
2 69777  51.8805 159.2805 0001787  80.9272 279.1917 15.38607346  2681
KUIPER-00621            
1 69778U 26151R   26200.59617582 -.00284780  00000+0 -77804-2 0  9993
2 69778  51.8786 158.9891 0003963 181.3547 178.7430 15.37960437  2697
KUIPER-00622            
1 69779U 26151S   26200.87108221  .00012227  00000+0  34265-3 0  9998
2 69779  51.8737 157.8253 0006515 159.7441 200.3805 15.36988793  2739
KUIPER-00623            
1 69780U 26151T   26198.26556190  .00133416  00000+0  34980-2 0  9998
2 69780  51.8777 170.3650 0006129 146.6000 213.5375 15.37672053  2337
KUIPER-00626            
1 69781U 26151U   26200.36511715 -.00039134  00000+0 -11343-2 0  9990
2 69781  51.8725 160.4295 0009935 176.2962 183.8099 15.34825609  2651
KUIPER-00627            
1 69782U 26151V   26200.83335647  .00045503  00000+0  13505-2 0  9998
2 69782  51.8698 158.1981 0010973 186.6945 228.0696 15.34299602  1301
